ONEWEB-0473             
1 51653U 22012AH  26196.50656555 -.00000172  00000+0 -52818-3 0  9996
2 51653  87.8817  30.6323 0001871  90.0040 270.1302 13.10376979213016
ONEWEB-0474             
1 51654U 22012AJ  26196.80349337 -.00000484  00000+0 -14226-2 0  9993
2 51654  87.8823  30.5600 0001582  94.1050 266.0258 13.10376177213043
ONEWEB-0475             
1 51655U 22012AK  26196.69840461  .00000070  00000+0  14763-3 0  9991
2 51655  87.9147   0.2005 0001452 111.9308 248.1978 13.17649246217442
ONEWEB-0490             
1 54113U 22138A   26196.79332903  .00000041  00000+0  70717-4 0  9990
2 54113  87.9192 299.2724 0002070 105.8489 254.2872 13.19726317180606
ONEWEB-0492             
1 54114U 22138B   26196.81858817 -.00000272  00000+0 -71286-3 0  9990
2 54114  87.9185 299.2666 0002242 104.0076 256.1306 13.19725130180614
ONEWEB-0495             
1 54115U 22138C   26196.79648963  .00000054  00000+0  10366-3 0  9995
2 54115  87.9186 299.2738 0002224 117.9299 242.2059 13.19726092180592
ONEWEB-0497             
1 54116U 22138D   26196.80910880 -.00000011  00000+0 -61007-4 0  9992
2 54116  87.9192 299.2649 0002057 104.3647 255.7714 13.19723462180586
ONEWEB-0499             
1 54117U 22138E   26196.79253840 -.00000011  00000+0 -59732-4 0  9999
2 54117  87.9184 299.2756 0001979 107.8483 252.2866 13.19723872180591
ONEWEB-0500             
1 54118U 22138F   26196.79491679 -.00000016  00000+0 -72432-4 0  9991
2 54118  87.9193 299.2714 0002089  98.8136 261.3233 13.19725711180608
ONEWEB-0501             
1 54119U 22138G   26196.82493072 -.00000008  00000+0 -51758-4 0  9994
2 54119  87.9194 299.2654 0002102 112.6617 247.4738 13.19726187180588
ONEWEB-0502             
1 54120U 22138H   26196.81068840 -.00001158  00000+0 -29244-2 0  9996
2 54120  87.9194 299.2566 0001947 107.5480 252.5866 13.19730484180606
ONEWEB-0503             
1 54121U 22138J   26196.79964800 -.00000012  00000+0 -62367-4 0  9998
2 54121  87.9197 299.2658 0001755  98.2931 261.8400 13.19726120180593
ONEWEB-0504             
1 54122U 22138K   26196.78701257  .00000038  00000+0  63314-4 0  9992
2 54122  87.9193 299.2728 0001888 107.4950 252.6389 13.19726344180603
ONEWEB-0505             
1 54123U 22138L   26196.78383623 -.00000120  00000+0 -33305-3 0  9996
2 54123  87.9191 299.2741 0001995 114.4553 245.6788 13.19724764180589
ONEWEB-0506             
1 54124U 22138M   26196.83441008  .00000104  00000+0  22809-3 0  9992
2 54124  87.9196 299.2612 0002017 110.6510 249.4839 13.19725780180587
ONEWEB-0507             
1 54125U 22138N   26196.77911087  .00000091  00000+0  19505-3 0  9999
2 54125  87.9186 299.2819 0002067 106.3579 253.7781 13.19727017180622
ONEWEB-0508             
1 54126U 22138P   26196.77595939  .00000043  00000+0  75688-4 0  9996
2 54126  87.9185 299.2820 0002264 110.9268 249.2108 13.19726006180607
ONEWEB-0509             
1 54127U 22138Q   26196.67486247 -.00000024  00000+0 -91353-4 0  9995
2 54127  87.9196 299.2945 0002034 105.3571 254.7787 13.19724296180566
ONEWEB-0510             
1 54128U 22138R   26196.23777811  .00000060  00000+0  11524-3 0  9997
2 54128  87.9186 268.8469 0002017  86.7304 273.4060 13.20769836182987
ONEWEB-0511             
1 54129U 22138S   26196.74751245 -.00000016  00000+0 -72837-4 0  9995
2 54129  87.9191 299.2818 0001744 104.0170 256.1157 13.19723615180606
ONEWEB-0512             
1 54130U 22138T   26196.81543149 -.00000048  00000+0 -15323-3 0  9998
2 54130  87.9185 299.2713 0001901 111.1718 248.9618 13.19726538180582
ONEWEB-0513             
1 54131U 22138U   26196.80927708 -.00000012  00000+0 -62256-4 0  9994
2 54131  87.9193 299.2133 0001614 127.7465 232.3814 13.20269619180490
ONEWEB-0514             
1 54132U 22138V   26196.75541735  .00000003  00000+0 -25293-4 0  9990
2 54132  87.9194 299.2794 0001962  97.2755 262.8601 13.19726518180591
ONEWEB-0515             
1 54133U 22138W   26196.75462266  .00000082  00000+0  17074-3 0  9995
2 54133  87.9190 268.7392 0002766  86.1331 274.0118 13.20772231183072
ONEWEB-0516             
1 54134U 22138X   26196.80595707 -.00000042  00000+0 -13615-3 0  9994
2 54134  87.9187 299.2735 0002158 102.9619 257.1755 13.19723856180602
ONEWEB-0517             
1 54135U 22138Y   26196.78543278  .00000040  00000+0  68364-4 0  9996
2 54135  87.9193 299.2722 0001715  97.8383 262.2945 13.19726093180608
ONEWEB-0518             
1 54136U 22138Z   26196.80438404  .00000126  00000+0  28277-3 0  9997
2 54136  87.9183 299.2759 0002279  99.5016 260.6374 13.19722980180605
ONEWEB-0519             
1 54137U 22138AA  26196.82964583  .00000014  00000+0  26562-5 0  9995
2 54137  87.9193 299.2639 0001840  99.5149 260.6191 13.19723777180617
ONEWEB-0520             
1 54138U 22138AB  26196.78859174  .00000007  00000+0 -15114-4 0  9993
2 54138  87.9195 299.2729 0002094 108.3710 251.7651 13.19726199180595
ONEWEB-0521             
1 54139U 22138AC  26196.82174522 -.00000075  00000+0 -21992-3 0  9992
2 54139  87.9197 299.2550 0001834  98.1522 261.9819 13.19727031180548
